NORAD_CAT_ID,OBJECT_NAME,OBJECT_TYPE,EPOCH,MEAN_MOTION,ECCENTRICITY,INCLINATION,RA_OF_ASC_NODE,ARG_OF_PERICENTER,MEAN_ANOMALY,BSTAR,MEAN_MOTION_DOT,MEAN_MOTION_DDOT,TLE_LINE0,TLE_LINE1,TLE_LINE2,SEMIMAJOR_AXIS,PERIOD,APOGEE,PERIGEE,DECAYED
55299.0,STARLINK-5270,PAYLOAD,2023-02-03 22:00:00,15.76259168,0.000358,70.0002,25.7114,269.2957,55.4636,-0.0058283,-0.00833879,0.0,0 STARLINK-5270,1 55299U 23010AG  23034.91667824 -.00833879  00000-0 -58283-2 0  9999,2 55299  70.0002  25.7114 0003580 269.2957  55.4636 15.76259168  1300,6719.187,91.356,343.458,338.647,0.0
55299.0,STARLINK-5270,PAYLOAD,2023-02-04 10:00:00,15.75360592,0.0003673,70.0,24.2933,261.1695,19.1748,-0.0060337,-0.00830176,0.0,0 STARLINK-5270,1 55299U 23010AG  23035.41667824 -.00830176  00000-0 -60337-2 0  9995,2 55299  70.0000  24.2933 0003673 261.1695  19.1748 15.75360592  3007,6721.742,91.408,346.076,341.138,0.0
55299.0,STARLINK-5270,PAYLOAD,2023-02-04 14:00:01,15.75073548,0.0003446,69.9991,23.8196,267.615,237.561,-0.0062534,-0.00847778,0.0,0 STARLINK-5270,1 55299U 23010AG  23035.58334491 -.00847778  00000-0 -62534-2 0  9991,2 55299  69.9991  23.8196 0003446 267.6150 237.5610 15.75073548  1301,6722.559,91.424,346.74,342.107,0.0
55299.0,STARLINK-5270,PAYLOAD,2023-02-04 22:00:00,15.74465153,0.0003469,70.0001,22.877,266.6719,327.6434,-0.0062991,-0.00833077,0.0,0 STARLINK-5270,1 55299U 23010AG  23035.91667824 -.00833077  00000-0 -62991-2 0  9991,2 55299  70.0001  22.8770 0003469 266.6719 327.6434 15.74465153  1309,6724.291,91.46,348.488,343.823,0.0
55299.0,STARLINK-5270,PAYLOAD,2023-02-05 06:00:00,15.73865965,0.0003747,70.0001,21.9336,258.151,64.5828,-0.00645,-0.00831437,0.0,0 STARLINK-5270,1 55299U 23010AG  23036.25001157 -.00831437  00000-0 -64500-2 0  9996,2 55299  70.0001  21.9336 0003747 258.1510  64.5828 15.73865965  3132,6725.997,91.494,350.382,345.342,0.0
55299.0,STARLINK-5270,PAYLOAD,2023-02-05 14:00:01,15.73282147,0.0003534,69.9956,20.9831,272.4745,138.061,-0.0069054,-0.00864479,0.0,0 STARLINK-5270,1 55299U 23010AG  23036.58335648 -.00864479  00000-0 -69054-2 0  9998,2 55299  69.9956  20.9831 0003534 272.4745 138.0610 15.73282147  1308,6727.661,91.528,351.904,347.148,0.0
55299.0,STARLINK-5270,PAYLOAD,2023-02-05 22:00:00,15.7269571,0.0003277,69.9962,20.0421,265.8626,231.5761,-0.0069818,-0.00853351,0.0,0 STARLINK-5270,1 55299U 23010AG  23036.91667824 -.00853351  00000-0 -69818-2 0  9994,2 55299  69.9962  20.0421 0003277 265.8626 231.5761 15.72695710  1308,6729.333,91.563,353.404,348.993,0.0
55299.0,STARLINK-5270,PAYLOAD,2023-02-06 06:00:00,15.7204328,0.0003586,69.9963,19.1014,270.1348,313.5994,-0.0066244,-0.00793266,0.0,0 STARLINK-5270,1 55299U 23010AG  23037.25001157 -.00793266  00000-0 -66244-2 0  9991,2 55299  69.9963  19.1014 0003586 270.1348 313.5994 15.72043280  3297,6731.195,91.601,355.474,350.646,0.0
55299.0,STARLINK-5270,PAYLOAD,2023-02-06 14:00:01,15.71496709,0.0003674,69.9961,18.1615,267.7035,41.5616,-0.0075614,-0.00875986,0.0,0 STARLINK-5270,1 55299U 23010AG  23037.58334491 -.00875986  00000-0 -75614-2 0  9998,2 55299  69.9961  18.1615 0003674 267.7035  41.5616 15.71496709  1300,6732.756,91.632,357.094,352.147,0.0
55299.0,STARLINK-5270,PAYLOAD,2023-02-06 22:00:00,15.70900052,0.0003713,69.9963,17.2229,264.9089,129.1816,-0.0075913,-0.00859323,0.0,0 STARLINK-5270,1 55299U 23010AG  23037.91667824 -.00859323  00000-0 -75913-2 0  9993,2 55299  69.9963  17.2229 0003713 264.9089 129.1816 15.70900052  1300,6734.46,91.667,358.826,353.825,0.0
55299.0,STARLINK-5270,PAYLOAD,2023-02-07 00:00:00,15.70749801,0.0003598,69.9966,16.9881,266.2807,238.9091,-0.0076642,-0.00861797,0.0,0 STARLINK-5270,1 55299U 23010AG  23038.00001157 -.00861797  00000-0 -76642-2 0  9993,2 55299  69.9966  16.9881 0003598 266.2807 238.9091 15.70749801  3418,6734.89,91.676,359.178,354.332,0.0
55299.0,STARLINK-5270,PAYLOAD,2023-02-07 08:00:01,15.69946119,0.0003577,69.9975,16.0501,272.7714,316.3867,-0.00025284,-0.00030534,0.0,0 STARLINK-5270,1 55299U 23010AG  23038.33334491 -.00030534  00000-0 -25284-3 0  9993,2 55299  69.9975  16.0501 0003577 272.7714 316.3867 15.69946119  3460,6737.188,91.723,361.463,356.643,0.0
55299.0,STARLINK-5270,PAYLOAD,2023-02-07 14:00:01,15.69953394,0.0003561,69.9982,15.3469,269.1382,292.5286,-0.00061155,-0.00073202,0.0,0 STARLINK-5270,1 55299U 23010AG  23038.58334491 -.00073202  00000-0 -61155-3 0  9996,2 55299  69.9982  15.3469 0003561 269.1382 292.5286 15.69953394  1301,6737.167,91.722,361.431,356.633,0.0
55299.0,STARLINK-5270,PAYLOAD,2023-02-07 22:00:00,15.69937501,0.000359,69.9999,14.4096,263.4118,21.5871,-2.8268e-05,-3.612e-05,0.0,0 STARLINK-5270,1 55299U 23010AG  23038.91667824 -.00003612  00000-0 -28268-4 0  9999,2 55299  69.9999  14.4096 0003590 263.4118  21.5871 15.69937501  1303,6737.213,91.723,361.496,356.659,0.0
55299.0,STARLINK-5270,PAYLOAD,2023-02-08 08:00:01,15.69876231,0.0003415,70.0006,13.2379,274.6324,204.569,0.00075237,0.00091061,0.0,0 STARLINK-5270,1 55299U 23010AG  23039.33334491  .00091061  00000-0  75237-3 0  9997,2 55299  70.0006  13.2379 0003415 274.6324 204.5690 15.69876231  3615,6737.388,91.727,361.554,356.952,0.0
55299.0,STARLINK-5270,PAYLOAD,2023-02-08 14:00:01,15.69952389,0.0003465,70.0003,12.5351,272.3522,179.3192,-0.00057301,-0.00068634,0.0,0 STARLINK-5270,1 55299U 23010AG  23039.58334491 -.00068634  00000-0 -57301-3 0  9998,2 55299  70.0003  12.5351 0003465 272.3522 179.3192 15.69952389  1303,6737.17,91.723,361.37,356.701,0.0
55299.0,STARLINK-5270,PAYLOAD,2023-02-08 22:00:00,15.69943168,0.0003422,70.0007,11.5983,266.6775,268.3231,-3.2516e-05,-4.124e-05,0.0,0 STARLINK-5270,1 55299U 23010AG  23039.91667824 -.00004124  00000-0 -32516-4 0  9990,2 55299  70.0007  11.5983 0003422 266.6775 268.3231 15.69943168  3711,6737.197,91.723,361.367,356.756,0.0
55299.0,STARLINK-5270,PAYLOAD,2023-02-09 12:00:00,15.6995892,0.0003426,69.9999,9.958,273.1294,317.7223,-0.00074213,-0.00088642,0.0,0 STARLINK-5270,1 55299U 23010AG  23040.50001157 -.00088642  00000-0 -74213-3 0  9994,2 55299  69.9999   9.9580 0003426 273.1294 317.7223 15.69958920  1300,6737.152,91.722,361.325,356.708,0.0
55299.0,STARLINK-5270,PAYLOAD,2023-02-09 22:00:00,15.69901583,0.0003492,70.0005,8.7866,262.2552,162.733,0.00053211,0.00064202,0.0,0 STARLINK-5270,1 55299U 23010AG  23040.91667824  .00064202  00000-0  53211-3 0  9997,2 55299  70.0005   8.7866 0003492 262.2552 162.7330 15.69901583  3867,6737.316,91.725,361.533,356.828,0.0
55299.0,STARLINK-5270,PAYLOAD,2023-02-10 04:00:00,15.69946542,0.0003571,70.0006,8.0836,265.9043,131.5832,-0.00017421,-0.00021128,0.0,0 STARLINK-5270,1 55299U 23010AG  23041.16667824 -.00021128  00000-0 -17421-3 0  9990,2 55299  70.0006   8.0836 0003571 265.9043 131.5832 15.69946542  1303,6737.187,91.723,361.458,356.646,0.0
55299.0,STARLINK-5270,PAYLOAD,2023-02-10 18:00:00,15.6984918,0.0003523,70.0005,6.4437,263.6362,189.7491,0.0012097,0.00147371,0.0,0 STARLINK-5270,1 55299U 23010AG  23041.75001157  .00147371  00000-0  12097-2 0  9996,2 55299  70.0005   6.4437 0003523 263.6362 189.7491 15.69849180  3990,6737.465,91.729,361.704,356.957,0.0
55299.0,STARLINK-5270,PAYLOAD,2023-02-10 22:00:00,15.69953845,0.0003531,70.0007,5.9753,265.2795,49.7252,-0.00029807,-0.00035946,0.0,0 STARLINK-5270,1 55299U 23010AG  23041.91667824 -.00035946  00000-0 -29807-3 0  9997,2 55299  70.0007   5.9753 0003531 265.2795  49.7252 15.69953845  1301,6737.166,91.722,361.41,356.652,0.0
55299.0,STARLINK-5270,PAYLOAD,2023-02-11 04:18:30,15.69954796,0.0003932,70.0004,5.2359,269.2761,90.7984,0.00049558,0.00059885,0.0,0 STARLINK-5270,1 55299U 23010AG  23042.17951723  .00059885  00000-0  49558-3 0  9991,2 55299  70.0004   5.2359 0003932 269.2761  90.7984 15.69954796  4065,6737.163,91.722,361.677,356.379,0.0
55299.0,STARLINK-5270,PAYLOAD,2023-02-11 08:53:45,15.6995653,0.0003602,70.0005,4.699,267.3398,92.7386,0.00053068,0.00064175,0.0,0 STARLINK-5270,1 55299U 23010AG  23042.37066684  .00064175  00000-0  53068-3 0  9995,2 55299  70.0005   4.6990 0003602 267.3398  92.7386 15.69956530  4098,6737.158,91.722,361.45,356.597,0.0
55299.0,STARLINK-5270,PAYLOAD,2023-02-12 06:18:18,15.69939363,0.0003264,70.0012,2.1902,265.6404,94.4419,0.00037018,0.00044562,0.0,0 STARLINK-5270,1 55299U 23010AG  23043.26271408  .00044562  00000-0  37018-3 0  9991,2 55299  70.0012   2.1902 0003264 265.6404  94.4419 15.69939363  4232,6737.207,91.723,361.272,356.873,0.0
55299.0,STARLINK-5270,PAYLOAD,2023-02-13 06:46:20,15.699574,0.000366,70.0002,359.3244,257.9865,102.092,0.00084402,0.0010267,0.0,0 STARLINK-5270,1 55299U 23010AG  23044.28217726  .00102670  00000-0  84402-3 0  9991,2 55299  70.0002 359.3244 0003660 257.9865 102.0920 15.69957400  4394,6737.156,91.722,361.487,356.555,0.0
55299.0,STARLINK-5270,PAYLOAD,2023-02-13 14:25:05,15.69959003,0.0002798,70.0016,358.4273,264.4214,95.6662,0.00060306,0.00073033,0.0,0 STARLINK-5270,1 55299U 23010AG  23044.60076017  .00073033  00000-0  60306-3 0  9990,2 55299  70.0016 358.4273 0002798 264.4214  95.6662 15.69959003  4440,6737.151,91.722,360.901,357.131,0.0
55299.0,STARLINK-5270,PAYLOAD,2023-02-15 06:10:23,15.70383682,0.0003637,70.0002,353.77,241.2785,118.8046,-0.0037719,-0.00439211,0.0,0 STARLINK-5270,1 55299U 23010AG  23046.25721858 -.00439211  00000-0 -37719-2 0  9990,2 55299  70.0002 353.7700 0003637 241.2785 118.8046 15.70383682  4706,6735.937,91.697,360.251,355.352,0.0
55299.0,STARLINK-5270,PAYLOAD,2023-02-15 13:49:05,15.69942003,0.0003678,69.9999,352.8735,268.7437,91.3337,0.00080979,0.00098385,0.0,0 STARLINK-5270,1 55299U 23010AG  23046.57576268  .00098385  00000-0  80979-3 0  9996,2 55299  69.9999 352.8735 0003678 268.7437  91.3337 15.69942003  4758,6737.2,91.723,361.543,356.587,0.0
55299.0,STARLINK-5270,PAYLOAD,2023-02-15 16:52:55,15.69863239,0.0003372,70.0002,352.5167,275.5393,84.5418,0.00025402,0.00030365,0.0,0 STARLINK-5270,1 55299U 23010AG  23046.70341645  .00030365  00000-0  25402-3 0  9994,2 55299  70.0002 352.5167 0003372 275.5393  84.5418 15.69863239  5961,6737.425,91.728,361.562,357.018,0.0
